JY1SAT (JO-97)          
1 43803U 18099AX  26068.68634132  .00017774  00000+0  60804-3 0  9996
2 43803  97.4249 131.3625 0004723 256.6795 103.3919 15.30302628398390
STARLINK-35797          
1 66364U 25254S   26068.76132379  .00035831  00000+0  12161-2 0  9995
2 66364  53.1590 232.3333 0001204  68.2693 291.8436 15.30198099 18984
